FENGYUN 1C DEB          
1 31032U 99025BEA 17345.65222400  .00000390  00000-0  31683-3 0  9991
2 31032  99.2363 285.6884 0156406 191.0809 294.0354 13.90396220543064
